$$SOE
2461281.500000000, A.D. 2026-Aug-29 00:00:00.0000, 1.373766792048730E+09, -2.267437831076840E+09, -4.509806191506045E+08,
2461288.500000000, A.D. 2026-Sep-05 00:00:00.0000, 1.377498248217299E+09, -2.266708439822162E+09, -4.506837527419803E+08,
2461295.500000000, A.D. 2026-Sep-12 00:00:00.0000, 1.381226297461002E+09, -2.265973442315045E+09, -4.503857622787502E+08,
2461302.500000000, A.D. 2026-Sep-19 00:00:00.0000, 1.384950933679663E+09, -2.265232849201179E+09, -4.500866499067311E+08,
2461309.500000000, A.D. 2026-Sep-26 00:00:00.0000, 1.388672151169962E+09, -2.264486671691386E+09, -4.497864178153907E+08,
2461316.500000000, A.D. 2026-Oct-03 00:00:00.0000, 1.392389944695578E+09, -2.263734921326291E+09, -4.494850682281792E+08,
2461323.500000000, A.D. 2026-Oct-10 00:00:00.0000, 1.396104309470752E+09, -2.262977609833681E+09, -4.491826033934141E+08,
2461330.500000000, A.D. 2026-Oct-17 00:00:00.0000, 1.399815241108901E+09, -2.262214749059403E+09, -4.488790255788374E+08,
2461337.500000000, A.D. 2026-Oct-24 00:00:00.0000, 1.403522735560683E+09, -2.261446350994354E+09, -4.485743370738155E+08,
2461344.500000000, A.D. 2026-Oct-31 00:00:00.0000, 1.407226789140274E+09, -2.260672427964191E+09, -4.482685402135788E+08,
2461351.500000000, A.D. 2026-Nov-07 00:00:00.0000, 1.410927398978922E+09, -2.259892992907684E+09, -4.479616374503767E+08,
2461358.500000000, A.D. 2026-Nov-14 00:00:00.0000, 1.414624564106661E+09, -2.259108058856277E+09, -4.476536314172462E+08,
2461365.500000000, A.D. 2026-Nov-21 00:00:00.0000, 1.418318285350423E+09, -2.258317636932982E+09, -4.473445247622759E+08,
2461372.500000000, A.D. 2026-Nov-28 00:00:00.0000, 1.422008563050465E+09, -2.257521735878693E+09, -4.470343199073796E+08,
2461379.500000000, A.D. 2026-Dec-05 00:00:00.0000, 1.425695396214636E+09, -2.256720363762200E+09, -4.467230191169113E+08,
2461386.500000000, A.D. 2026-Dec-12 00:00:00.0000, 1.429378783275417E+09, -2.255913528762977E+09, -4.464106246367202E+08,
2461393.500000000, A.D. 2026-Dec-19 00:00:00.0000, 1.433058722562467E+09, -2.255101239020267E+09, -4.460971387297618E+08,
2461400.500000000, A.D. 2026-Dec-26 00:00:00.0000, 1.436735212348247E+09, -2.254283502416575E+09, -4.457825636659285E+08,
2461407.500000000, A.D. 2027-Jan-02 00:00:00.0000, 1.440408250742292E+09, -2.253460326486582E+09, -4.454669017068220E+08,
2461414.500000000, A.D. 2027-Jan-09 00:00:00.0000, 1.444077835550473E+09, -2.252631718431495E+09, -4.451501550944235E+08,
2461421.500000000, A.D. 2027-Jan-16 00:00:00.0000, 1.447743964133523E+09, -2.251797685230225E+09, -4.448323260461104E+08,
2461428.500000000, A.D. 2027-Jan-23 00:00:00.0000, 1.451406633309418E+09, -2.250958233887233E+09, -4.445134167634488E+08,
2461435.500000000, A.D. 2027-Jan-30 00:00:00.0000, 1.455065839485745E+09, -2.250113371864998E+09, -4.441934294759246E+08,
2461442.500000000, A.D. 2027-Feb-06 00:00:00.0000, 1.458721579445121E+09, -2.249263107361252E+09, -4.438723665308645E+08,
2461449.500000000, A.D. 2027-Feb-13 00:00:00.0000, 1.462373851321821E+09, -2.248407448211434E+09, -4.435502303877922E+08,
2461456.500000000, A.D. 2027-Feb-20 00:00:00.0000, 1.466022653404406E+09, -2.247546400207438E+09, -4.432270233652200E+08,
2461463.500000000, A.D. 2027-Feb-27 00:00:00.0000, 1.469667982159301E+09, -2.246679968046404E+09, -4.429027475307511E+08,
2461470.500000000, A.D. 2027-Mar-06 00:00:00.0000, 1.473309832492861E+09, -2.245808156986971E+09, -4.425774048543708E+08,
2461477.500000000, A.D. 2027-Mar-13 00:00:00.0000, 1.476948198651334E+09, -2.244930973163549E+09, -4.422509973108741E+08,
2461484.500000000, A.D. 2027-Mar-20 00:00:00.0000, 1.480583074629201E+09, -2.244048423393250E+09, -4.419235268962296E+08,
2461491.500000000, A.D. 2027-Mar-27 00:00:00.0000, 1.484214454287826E+09, -2.243160515024410E+09, -4.415949956214108E+08,
2461498.500000000, A.D. 2027-Apr-03 00:00:00.0000, 1.487842331387342E+09, -2.242267255874470E+09, -4.412654055063117E+08,
2461505.500000000, A.D. 2027-Apr-10 00:00:00.0000, 1.491466699592979E+09, -2.241368654234111E+09, -4.409347585775557E+08,
2461512.500000000, A.D. 2027-Apr-17 00:00:00.0000, 1.495087552477951E+09, -2.240464718951986E+09, -4.406030568734356E+08,
2461519.500000000, A.D. 2027-Apr-24 00:00:00.0000, 1.498704883602074E+09, -2.239555459662191E+09, -4.402703024683607E+08,
2461526.500000000, A.D. 2027-May-01 00:00:00.0000, 1.502318686965781E+09, -2.238640887126671E+09, -4.399364975420144E+08,
2461533.500000000, A.D. 2027-May-08 00:00:00.0000, 1.505928958146909E+09, -2.237721012944167E+09, -4.396016444602576E+08,
2461540.500000000, A.D. 2027-May-15 00:00:00.0000, 1.509535694623397E+09, -2.236795847672265E+09, -4.392657456525381E+08,
2461547.500000000, A.D. 2027-May-22 00:00:00.0000, 1.513138893718028E+09, -2.235865399954158E+09, -4.389288033541491E+08,
2461554.500000000, A.D. 2027-May-29 00:00:00.0000, 1.516738551521139E+09, -2.234929678118372E+09, -4.385908196410428E+08,
2461561.500000000, A.D. 2027-Jun-05 00:00:00.0000, 1.520334663676143E+09, -2.233988691119705E+09, -4.382517965823355E+08,
2461568.500000000, A.D. 2027-Jun-12 00:00:00.0000, 1.523927226020329E+09, -2.233042448389588E+09, -4.379117362909750E+08,
2461575.500000000, A.D. 2027-Jun-19 00:00:00.0000, 1.527516234749928E+09, -2.232090959530887E+09, -4.375706409184812E+08,
2461582.500000000, A.D. 2027-Jun-26 00:00:00.0000, 1.531101686388849E+09, -2.231134234118436E+09, -4.372285126405597E+08,
2461589.500000000, A.D. 2027-Jul-03 00:00:00.0000, 1.534683577693225E+09, -2.230172281597040E+09, -4.368853536448165E+08,
2461596.500000000, A.D. 2027-Jul-10 00:00:00.0000, 1.538261905528603E+09, -2.229205111268196E+09, -4.365411661230024E+08,
2461603.500000000, A.D. 2027-Jul-17 00:00:00.0000, 1.541836666756123E+09, -2.228232732404395E+09, -4.361959522740442E+08,
2461610.500000000, A.D. 2027-Jul-24 00:00:00.0000, 1.545407858284125E+09, -2.227255154553828E+09, -4.358497143370941E+08,
2461617.500000000, A.D. 2027-Jul-31 00:00:00.0000, 1.548975477696604E+09, -2.226272387799963E+09, -4.355024546728679E+08,
2461624.500000000, A.D. 2027-Aug-07 00:00:00.0000, 1.552539524257789E+09, -2.225284441824270E+09, -4.351541757805418E+08,
2461631.500000000, A.D. 2027-Aug-14 00:00:00.0000, 1.556099997991745E+09, -2.224291324025412E+09, -4.348048800597652E+08,
2461638.500000000, A.D. 2027-Aug-21 00:00:00.0000, 1.559656897455183E+09, -2.223293040059072E+09, -4.344545696493764E+08,
2461645.500000000, A.D. 2027-Aug-28 00:00:00.0000, 1.563210219634581E+09, -2.222289595595216E+09, -4.341032465592041E+08,
2461652.500000000, A.D. 2027-Sep-04 00:00:00.0000, 1.566759960786438E+09, -2.221280996790458E+09, -4.337509127822584E+08,
2461659.500000000, A.D. 2027-Sep-11 00:00:00.0000, 1.570306116825353E+09, -2.220267250136865E+09, -4.333975703135705E+08,
2461666.500000000, A.D. 2027-Sep-18 00:00:00.0000, 1.573848683393134E+09, -2.219248362337239E+09, -4.330432211412834E+08,
2461673.500000000, A.D. 2027-Sep-25 00:00:00.0000, 1.577387655837773E+09, -2.218224340284314E+09, -4.326878672375867E+08,
2461680.500000000, A.D. 2027-Oct-02 00:00:00.0000, 1.580923029177364E+09, -2.217195191115938E+09, -4.323315105544001E+08,
2461687.500000000, A.D. 2027-Oct-09 00:00:00.0000, 1.584454798071491E+09, -2.216160922350368E+09, -4.319741530264776E+08,
2461694.500000000, A.D. 2027-Oct-16 00:00:00.0000, 1.587982956863325E+09, -2.215121542156129E+09, -4.316157965924430E+08,
2461701.500000000, A.D. 2027-Oct-23 00:00:00.0000, 1.591507499952473E+09, -2.214077059761735E+09, -4.312564432582482E+08,
2461708.500000000, A.D. 2027-Oct-30 00:00:00.0000, 1.595028422873391E+09, -2.213027485394588E+09, -4.308960951876732E+08,
2461715.500000000, A.D. 2027-Nov-06 00:00:00.0000, 1.598545722916073E+09, -2.211972828620649E+09, -4.305347546210868E+08,
2461722.500000000, A.D. 2027-Nov-13 00:00:00.0000, 1.602059397303628E+09, -2.210913097160846E+09, -4.301724236100954E+08,
2461729.500000000, A.D. 2027-Nov-20 00:00:00.0000, 1.605569441828677E+09, -2.209848298369934E+09, -4.298091040128921E+08,
2461736.500000000, A.D. 2027-Nov-27 00:00:00.0000, 1.609075851566163E+09, -2.208778440413218E+09, -4.294447976563643E+08,
2461743.500000000, A.D. 2027-Dec-04 00:00:00.0000, 1.612578621639038E+09, -2.207703532227132E+09, -4.290795064046468E+08,
2461750.500000000, A.D. 2027-Dec-11 00:00:00.0000, 1.616077747486264E+09, -2.206623583227566E+09, -4.287132321623487E+08,
2461757.500000000, A.D. 2027-Dec-18 00:00:00.0000, 1.619573224908087E+09, -2.205538603104928E+09, -4.283459768653127E+08,
2461764.500000000, A.D. 2027-Dec-25 00:00:00.0000, 1.623065050040607E+09, -2.204448601708030E+09, -4.279777424729271E+08,
2461771.500000000, A.D. 2028-Jan-01 00:00:00.0000, 1.626553219301033E+09, -2.203353589002076E+09, -4.276085309645017E+08,
$$EOE